FENGYUN 4B              
1 48808U 21047A   26156.58393231 -.00000317  00000+0  00000+0 0  9996
2 48808   0.1239  75.7773 0005177 289.8220 203.2690  1.00266147 18459
SXM-8                   
1 48838U 21049A   26157.90100604 -.00000192  00000+0  00000+0 0  9999
2 48838   0.0200  18.0730 0004953  16.4977  99.9648  1.00271441 18485
TIANLIAN 1-05           
1 49011U 21063A   26157.06560551  .00000121  00000+0  00000+0 0  9998
2 49011   1.5645  80.7984 0001073 315.3769 258.7612  1.00272868 17967
STAR ONE D2             
1 49055U 21069A   26157.33864490  .00000000  00000+0  00000+0 0  9997
2 49055   0.0124 343.7602 0001782 114.3976 208.4181  1.00269267 17832
EUTELSAT QUANTUM        
1 49056U 21069B   26157.89995027  .00000140  00000+0  00000+0 0  9995
2 49056   0.0100 339.1437 0002418  93.1197 194.7305  1.00271830 17821
ZHONGXING-2E            
1 49062U 21071A   26157.97472453 -.00000278  00000+0  00000+0 0  9990
2 49062   0.0475 244.2718 0001800 235.2064 224.8519  1.00274403 17930
TJS-7                   
1 49115U 21077A   26157.89814603 -.00000110  00000+0  00000+0 0  9998
2 49115   0.4818  86.1999 0002506 333.8748  59.1158  1.00271357  9457
CHINASAT 9B             
1 49125U 21080A   26157.93794356 -.00000299  00000+0  00000+0 0  9998
2 49125   0.0243  78.3469 0001611  20.7800 235.2936  1.00274166 17549
SHIJIAN-21 (SJ-21)      
1 49330U 21094A   26157.87817586 -.00000334  00000+0  00000+0 0  9995
2 49330   5.0878  61.2405 0049467 167.9791 110.1895  1.00276608  5254
SES-17                  
1 49332U 21095A   26157.90455940 -.00000259  00000+0  00000+0 0  9990
2 49332   0.0241  36.6016 0001053  65.2852  51.9732  1.00272789 17752
SYRACUSE 4A             
1 49333U 21095B   26157.92352108  .00000149  00000+0  00000+0 0  9992
2 49333   0.0123 347.5941 0001336  84.8083 200.9040  1.00270949 17844
QZS-1R (MICHIBIKI-1R)   
1 49336U 21096A   26157.65764851 -.00000234  00000+0  00000+0 0  9994
2 49336  37.4401  79.7406 0754231 271.5748 275.1259  1.00259679 16901
ZHONGXING-1D            
1 49505U 21114A   26157.94357692 -.00000322  00000+0  00000+0 0  9994
2 49505   0.0421 246.7244 0000095 314.3600 164.1341  1.00274992 16711
STPSAT-6                
1 49817U 21118A   26157.89571936 -.00000032  00000+0  00000+0 0  9995
2 49817   0.2933  85.5158 0001422 260.1825 120.3757  1.00273609 16474
EXPRESS AMU-7           
1 50001U 21123A   26156.87709825 -.00000230  00000+0  00000+0 0  9995
2 50001   0.0152 294.3911 0000176 101.4015 319.2735  1.00272297 16424
EXPRESS AMU-3           
1 50002U 21123B   26157.00744566  .00000000  00000+0  00000+0 0  9997
2 50002   0.0231 311.6887 0000425 355.6601  52.6473  1.00270112  6924
TIANLIAN 2-02           
1 50005U 21124A   26157.88043742  .00000000  00000+0  00000+0 0  9995
2 50005   0.7743  86.2881 0001168 223.9605  72.9793  1.00272722 16512
TURKSAT 5B              
1 50212U 21126A   26157.85484347  .00000160  00000+0  00000+0 0  9991
2 50212   0.0681 339.9904 0003690  18.2082 246.8210  1.00272259 16191
INMARSAT 6-F1           
1 50319U 21128A   26157.93439021 -.00000158  00000+0  00000+0 0  9997
2 50319   0.0140 289.6009 0000200 232.4695 153.4141  1.00271222 16151
SHIYAN-12 01 (SY-12 01) 
1 50321U 21129A   26157.72449881  .00000032  00000+0  00000+0 0  9993
2 50321   3.6467  80.0511 0003482 289.2234 215.5580  1.00038142 16395
SHIYAN-12 02 (SY-12 02) 
1 50322U 21129B   26157.72640056 -.00000177  00000+0  00000+0 0  9992
2 50322   3.6464  80.0578 0002701  52.3961 104.8461  1.00492150 16396
TJS-9                   
1 50574U 21135A   26157.94496360 -.00000285  00000+0  00000+0 0  9999
2 50574   0.0614 256.3519 0004876 151.5592 324.8447  1.00272771 16329
USA 324                 
1 51280U 22006A   26157.08795008 -.00000058  00000+0  00000+0 0  9996
2 51280   0.7690  83.2777 0002840 165.6787 110.1567  1.00289779 16021
GOES 18                 
1 51850U 22021A   26157.74806534  .00000110  00000+0  00000+0 0  9994
2 51850   0.0388 141.8689 0000616 351.6439 253.9544  1.00272099  6481
ZHONGXING-6D            
1 52255U 22038A   26156.94597962 -.00000341  00000+0  00000+0 0  9992
2 52255   0.0358  95.0986 0000266 259.8404   5.0665  1.00270543 15314
NILESAT 301             
1 52817U 22061A   26157.91646316 -.00000044  00000+0  00000+0 0  9998
2 52817   0.0552  25.2502 0005544  18.1647 174.8378  1.00272047 14633
CMS-02 (GSAT-24)        
1 52903U 22067A   26157.93430354 -.00000151  00000+0  00000+0 0  9994
2 52903   0.0188  83.0595 0001839 290.9116 300.7343  1.00271447 14503
MEASAT 3D               
1 52904U 22067B   26157.93595022 -.00000228  00000+0  00000+0 0  9994
2 52904   0.0278 359.2139 0001249  37.9218 286.6587  1.00270541 14543
SES-22                  
1 52933U 22071A   26157.53382991  .00000118  00000+0  00000+0 0  9993
2 52933   0.0089  13.6621 0001294  53.7927 240.6786  1.00273368  7414
WFOV (USA 332)          
1 52940U 22073A   26157.79882473 -.00000349  00000+0  00000+0 0  9998
2 52940   3.6834  78.6602 0002154 246.7790 336.6100  1.00272947 14266
TIANLIAN 2-03           
1 53100U 22078A   26157.77735036  .00000086  00000+0  00000+0 0  9999
2 53100   0.6459  76.8193 0001553 316.7185 152.0885  1.00272467 14445
SBIRS GEO-6 (USA 336)   
1 53355U 22092A   26157.16111184 -.00000281  00000+0  00000+0 0  9990
2 53355   3.2771 317.2986 0002127 115.3624  18.9374  1.00271431 14122
