OBJECT_NAME,OBJECT_ID,EPOCH,MEAN_MOTION,ECCENTRICITY,INCLINATION,RA_OF_ASC_NODE,ARG_OF_PERICENTER,MEAN_ANOMALY,EPHEMERIS_TYPE,CLASSIFICATION_TYPE,NORAD_CAT_ID,ELEMENT_SET_NO,REV_AT_EPOCH,BSTAR,MEAN_MOTION_DOT,MEAN_MOTION_DDOT
FENGYUN 4B,2021-047A,2026-06-05T14:00:51.751584,1.00266147,.00051777,0.1239,75.7773,289.8220,203.2690,0,U,48808,999,1845,0,-.317E-5,0
SXM-8,2021-049A,2026-06-06T21:37:26.921856,1.00271441,.00049531,0.0200,18.0730,16.4977,99.9648,0,U,48838,999,1848,0,-.192E-5,0
TIANLIAN 1-05,2021-063A,2026-06-06T01:34:28.316064,1.00272868,.00010734,1.5645,80.7984,315.3769,258.7612,0,U,49011,999,1796,0,.121E-5,0
STAR ONE D2,2021-069A,2026-06-06T08:07:38.919360,1.00269267,.00017825,0.0124,343.7602,114.3976,208.4181,0,U,49055,999,1783,0,0,0
EUTELSAT QUANTUM,2021-069B,2026-06-06T21:35:55.703328,1.00271830,.00024188,0.0100,339.1437,93.1197,194.7305,0,U,49056,999,1782,0,.14E-5,0
ZHONGXING-2E,2021-071A,2026-06-06T23:23:36.199392,1.00274403,.00018008,0.0475,244.2718,235.2064,224.8519,0,U,49062,999,1793,0,-.278E-5,0
TJS-7,2021-077A,2026-06-06T21:33:19.816992,1.00271357,.00025064,0.4818,86.1999,333.8748,59.1158,0,U,49115,999,945,0,-.11E-5,0
CHINASAT 9B,2021-080A,2026-06-06T22:30:38.323584,1.00274166,.0001611,0.0243,78.3469,20.7800,235.2936,0,U,49125,999,1754,0,-.299E-5,0
SHIJIAN-21 (SJ-21),2021-094A,2026-06-06T21:04:34.394304,1.00276608,.00494675,5.0878,61.2405,167.9791,110.1895,0,U,49330,999,525,0,-.334E-5,0
SES-17,2021-095A,2026-06-06T21:42:33.932160,1.00272789,.00010534,0.0241,36.6016,65.2852,51.9732,0,U,49332,999,1775,0,-.259E-5,0
SYRACUSE 4A,2021-095B,2026-06-06T22:09:52.221312,1.00270949,.00013368,0.0123,347.5941,84.8083,200.9040,0,U,49333,999,1784,0,.149E-5,0
QZS-1R (MICHIBIKI-1R),2021-096A,2026-06-06T15:47:00.831264,1.00259679,.0754231,37.4401,79.7406,271.5748,275.1259,0,U,49336,999,1690,0,-.234E-5,0
ZHONGXING-1D,2021-114A,2026-06-06T22:38:45.045888,1.00274992,.00000953,0.0421,246.7244,314.3600,164.1341,0,U,49505,999,1671,0,-.322E-5,0
STPSAT-6,2021-118A,2026-06-06T21:29:50.152704,1.00273609,.00014224,0.2933,85.5158,260.1825,120.3757,0,U,49817,999,1647,0,-.32E-6,0
EXPRESS AMU-7,2021-123A,2026-06-05T21:03:01.288800,1.00272297,.00001769,0.0152,294.3911,101.4015,319.2735,0,U,50001,999,1642,0,-.23E-5,0
EXPRESS AMU-3,2021-123B,2026-06-06T00:10:43.305024,1.00270112,.00004255,0.0231,311.6887,355.6601,52.6473,0,U,50002,999,692,0,0,0
TIANLIAN 2-02,2021-124A,2026-06-06T21:07:49.793088,1.00272722,.00011682,0.7743,86.2881,223.9605,72.9793,0,U,50005,999,1651,0,0,0
TURKSAT 5B,2021-126A,2026-06-06T20:30:58.475808,1.00272259,.00036901,0.0681,339.9904,18.2082,246.8210,0,U,50212,999,1619,0,.16E-5,0
INMARSAT 6-F1,2021-128A,2026-06-06T22:25:31.314144,1.00271222,.00002002,0.0140,289.6009,232.4695,153.4141,0,U,50319,999,1615,0,-.158E-5,0
SHIYAN-12 01 (SY-12 01),2021-129A,2026-06-06T17:23:16.697184,1.00038142,.0003482,3.6467,80.0511,289.2234,215.5580,0,U,50321,999,1639,0,.32E-6,0
SHIYAN-12 02 (SY-12 02),2021-129B,2026-06-06T17:26:01.008384,1.00492150,.0002701,3.6464,80.0578,52.3961,104.8461,0,U,50322,999,1639,0,-.177E-5,0
TJS-9,2021-135A,2026-06-06T22:40:44.855040,1.00272771,.00048761,0.0614,256.3519,151.5592,324.8447,0,U,50574,999,1632,0,-.285E-5,0
USA 324,2022-006A,2026-06-06T02:06:38.886912,1.00289779,.000284,0.7690,83.2777,165.6787,110.1567,0,U,51280,999,1602,0,-.58E-6,0
GOES 18,2022-021A,2026-06-06T17:57:12.845376,1.00272099,.00006169,0.0388,141.8689,351.6439,253.9544,0,U,51850,999,648,0,.11E-5,0
ZHONGXING-6D,2022-038A,2026-06-05T22:42:12.639168,1.00270543,.00002666,0.0358,95.0986,259.8404,5.0665,0,U,52255,999,1531,0,-.341E-5,0
NILESAT 301,2022-061A,2026-06-06T21:59:42.417024,1.00272047,.00055442,0.0552,25.2502,18.1647,174.8378,0,U,52817,999,1463,0,-.44E-6,0
CMS-02 (GSAT-24),2022-067A,2026-06-06T22:25:23.825856,1.00271447,.00018398,0.0188,83.0595,290.9116,300.7343,0,U,52903,999,1450,0,-.151E-5,0
MEASAT 3D,2022-067B,2026-06-06T22:27:46.099008,1.00270541,.00012495,0.0278,359.2139,37.9218,286.6587,0,U,52904,999,1454,0,-.228E-5,0
SES-22,2022-071A,2026-06-06T12:48:42.904224,1.00273368,.0001294,0.0089,13.6621,53.7927,240.6786,0,U,52933,999,741,0,.118E-5,0
WFOV (USA 332),2022-073A,2026-06-06T19:10:18.456672,1.00272947,.00021544,3.6834,78.6602,246.7790,336.6100,0,U,52940,999,1426,0,-.349E-5,0
TIANLIAN 2-03,2022-078A,2026-06-06T18:39:23.071104,1.00272467,.00015531,0.6459,76.8193,316.7185,152.0885,0,U,53100,999,1444,0,.86E-6,0
SBIRS GEO-6 (USA 336),2022-092A,2026-06-06T03:52:00.062976,1.00271431,.0002127,3.2771,317.2986,115.3624,18.9374,0,U,53355,999,1412,0,-.281E-5,0
